{"type": "FeatureCollection", "features": [ {"type": "Feature", "properties": {"norad_id": 34375, "name": "IRIDIUM 33 DEB", "group": "iridium-33-debris", "lat": -41.32380801265988, "lon": 6.162161574381656, "alt_km": 840.8435082128735, "timestamp": "2025-12-11T22:43:47.654657+00:00", "meta": {"OBJECT_NAME": "IRIDIUM 33 DEB", "OBJECT_ID": "1997-051FT", "EPOCH": "2025-12-11T00:23:27.996864", "MEAN_MOTION": 14.17987093, "ECCENTRICITY": 0.01031842, "INCLINATION": 86.4327, "RA_OF_ASC_NODE": 183.3931, "ARG_OF_PERICENTER": 132.1212, "MEAN_ANOMALY": 19.5612, "EPHEMERIS_TYPE": 0, "CLASSIFICATION_TYPE": "U", "NORAD_CAT_ID": 34375, "ELEMENT_SET_NO": 999, "REV_AT_EPOCH": 86687, "BSTAR": 0.0005759811, "MEAN_MOTION_DOT": 1.262e-05, "MEAN_MOTION_DDOT": 0}, "tle": {"line1": "1 34375U 97051FT  25345.01629626  .00001262  00000+0  57598-3 0  9992", "line2": "2 34375  86.4327 183.3931 0103184 132.1212  19.5612 14.17987093866879"}}, "geometry": {"type": "Point", "coordinates": [6.162161574381656, -41.32380801265988]}}, {"type": "Feature", "properties": {"norad_id": 34376, "name": "IRIDIUM 33 DEB", "group": "iridium-33-debris", "lat": 74.31212029560481, "lon": 173.57188717984522, "alt_km": 669.5368561220766, "timestamp": "2025-12-11T22:43:47.654668+00:00", "meta": {"OBJECT_NAME": "IRIDIUM 33 DEB", "OBJECT_ID": "1997-051FU", "EPOCH": "2025-12-11T05:49:44.575392", "MEAN_MOTION": 14.62535541, "ECCENTRICITY": 0.00270137, "INCLINATION": 86.299, "RA_OF_ASC_NODE": 7.2126, "ARG_OF_PERICENTER": 171.6428, "MEAN_ANOMALY": 188.5239, "EPHEMERIS_TYPE": 0, "CLASSIFICATION_TYPE": "U", "NORAD_CAT_ID": 34376, "ELEMENT_SET_NO": 999, "REV_AT_EPOCH": 87985, "BSTAR": 0.0027609719, "MEAN_MOTION_DOT": 0.00014114, "MEAN_MOTION_DDOT": 0}, "tle": {"line1": "1 34376U 97051FU  25345.24287703  .00014114  00000+0  27610-2 0  9995", "line2": "2 34376  86.2990   7.2126 0027013 171.6428 188.5239 14.62535541879858"}}, "geometry": {"type": "Point", "coordinates": [173.57188717984522, 74.31212029560481]}}, {"type": "Feature", "properties": {"norad_id": 34486, "name": "IRIDIUM 33 DEB", "group": "iridium-33-debris", "lat": -47.50905121457568, "lon": -163.6619011564583, "alt_km": 590.5863227320215, "timestamp": "2025-12-11T22:43:47.654679+00:00", "meta": {"OBJECT_NAME": "IRIDIUM 33 DEB", "OBJECT_ID": "1997-051GB", "EPOCH": "2025-12-11T02:42:46.568736", "MEAN_MOTION": 14.95675901, "ECCENTRICITY": 0.00135337, "INCLINATION": 86.394, "RA_OF_ASC_NODE": 12.7753, "ARG_OF_PERICENTER": 118.272, "MEAN_ANOMALY": 301.206, "EPHEMERIS_TYPE": 0, "CLASSIFICATION_TYPE": "U", "NORAD_CAT_ID": 34486, "ELEMENT_SET_NO": 999, "REV_AT_EPOCH": 88962, "BSTAR": 0.0032070049, "MEAN_MOTION_DOT": 0.00035889, "MEAN_MOTION_DDOT": 0}, "tle": {"line1": "1 34486U 97051GB  25345.11303899  .00035889  00000+0  32070-2 0  9996", "line2": "2 34486  86.3940  12.7753 0013533 118.2720 301.2060 14.95675901889620"}}, "geometry": {"type": "Point", "coordinates": [-163.6619011564583, -47.50905121457568]}}, {"type": "Feature", "properties": {"norad_id": 34487, "name": "IRIDIUM 33 DEB", "group": "iridium-33-debris", "lat": 32.026458634062784, "lon": 15.010920644165346, "alt_km": 749.539936057965, "timestamp": "2025-12-11T22:43:47.654689+00:00", "meta": {"OBJECT_NAME": "IRIDIUM 33 DEB", "OBJECT_ID": "1997-051GC", "EPOCH": "2025-12-11T13:19:44.628096", "MEAN_MOTION": 14.43213873, "ECCENTRICITY": 0.00326872, "INCLINATION": 86.3435, "RA_OF_ASC_NODE": 12.8871, "ARG_OF_PERICENTER": 132.1044, "MEAN_ANOMALY": 26.644, "EPHEMERIS_TYPE": 0, "CLASSIFICATION_TYPE": "U", "NORAD_CAT_ID": 34487, "ELEMENT_SET_NO": 999, "REV_AT_EPOCH": 88231, "BSTAR": 0.00027773351, "MEAN_MOTION_DOT": 9.6e-06, "MEAN_MOTION_DDOT": 0}, "tle": {"line1": "1 34487U 97051GC  25345.55537764  .00000960  00000+0  27773-3 0  9992", "line2": "2 34487  86.3435  12.8871 0032687 132.1044  26.6440 14.43213873882315"}}, "geometry": {"type": "Point", "coordinates": [15.010920644165346, 32.026458634062784]}}, {"type": "Feature", "properties": {"norad_id": 34488, "name": "IRIDIUM 33 DEB", "group": "iridium-33-debris", "lat": 64.20244190525752, "lon": 118.5645231369181, "alt_km": 467.9392547537045, "timestamp": "2025-12-11T22:43:47.654699+00:00", "meta": {"OBJECT_NAME": "IRIDIUM 33 DEB", "OBJECT_ID": "1997-051GD", "EPOCH": "2025-12-11T08:05:29.176800", "MEAN_MOTION": 15.28894611, "ECCENTRICITY": 0.00136408, "INCLINATION": 86.3246, "RA_OF_ASC_NODE": 306.5086, "ARG_OF_PERICENTER": 54.3044, "MEAN_ANOMALY": 305.9471, "EPHEMERIS_TYPE": 0, "CLASSIFICATION_TYPE": "U", "NORAD_CAT_ID": 34488, "ELEMENT_SET_NO": 999, "REV_AT_EPOCH": 89218, "BSTAR": 0.0084778967, "MEAN_MOTION_DOT": 0.00245926, "MEAN_MOTION_DDOT": 0}, "tle": {"line1": "1 34488U 97051GD  25345.33714325  .00245926  00000+0  84779-2 0  9990", "line2": "2 34488  86.3246 306.5086 0013640  54.3044 305.9471 15.28894611892182"}}, "geometry": {"type": "Point", "coordinates": [118.5645231369181, 64.20244190525752]}}, {"type": "Feature", "properties": {"norad_id": 34492, "name": "IRIDIUM 33 DEB", "group": "iridium-33-debris", "lat": 9.662296076765447, "lon": 154.3471763090942, "alt_km": 760.2882977499203, "timestamp": "2025-12-11T22:43:47.654709+00:00", "meta": {"OBJECT_NAME": "IRIDIUM 33 DEB", "OBJECT_ID": "1997-051GH", "EPOCH": "2025-12-11T10:51:29.088000", "MEAN_MOTION": 14.25685433, "ECCENTRICITY": 0.01891489, "INCLINATION": 86.4728, "RA_OF_ASC_NODE": 335.1486, "ARG_OF_PERICENTER": 242.3501, "MEAN_ANOMALY": 272.6341, "EPHEMERIS_TYPE": 0, "CLASSIFICATION_TYPE": "U", "NORAD_CAT_ID": 34492, "ELEMENT_SET_NO": 999, "REV_AT_EPOCH": 85040, "BSTAR": 0.0095833732, "MEAN_MOTION_DOT": 0.00027512, "MEAN_MOTION_DDOT": 0}, "tle": {"line1": "1 34492U 97051GH  25345.45242000  .00027512  00000+0  95834-2 0  9997", "line2": "2 34492  86.4728 335.1486 0189148 242.3501 272.6341 14.25685433850400"}}, "geometry": {"type": "Point", "coordinates": [154.3471763090942, 9.662296076765447]}}, {"type": "Feature", "properties": {"norad_id": 34497, "name": "IRIDIUM 33 DEB", "group": "iridium-33-debris", "lat": 46.20730861027933, "lon": 56.63380212229637, "alt_km": 771.2259287401384, "timestamp": "2025-12-11T22:43:47.654719+00:00", "meta": {"OBJECT_NAME": "IRIDIUM 33 DEB", "OBJECT_ID": "1997-051GN", "EPOCH": "2025-12-10T04:35:23.086752", "MEAN_MOTION": 14.2744131, "ECCENTRICITY": 0.00790645, "INCLINATION": 86.2779, "RA_OF_ASC_NODE": 53.4903, "ARG_OF_PERICENTER": 347.8917, "MEAN_ANOMALY": 40.4515, "EPHEMERIS_TYPE": 0, "CLASSIFICATION_TYPE": "U", "NORAD_CAT_ID": 34497, "ELEMENT_SET_NO": 999, "REV_AT_EPOCH": 86847, "BSTAR": 0.00082191095, "MEAN_MOTION_DOT": 2.102e-05, "MEAN_MOTION_DDOT": 0}, "tle": {"line1": "1 34497U 97051GN  25344.19123943  .00002102  00000+0  82191-3 0  9997", "line2": "2 34497  86.2779  53.4903 0079064 347.8917  40.4515 14.27441310868476"}}, "geometry": {"type": "Point", "coordinates": [56.63380212229637, 46.20730861027933]}}, {"type": "Feature", "properties": {"norad_id": 34508, "name": "IRIDIUM 33 DEB", "group": "iridium-33-debris", "lat": 7.526507881787182, "lon": -77.50166732065718, "alt_km": 718.7014800750585, "timestamp": "2025-12-11T22:43:47.654730+00:00", "meta": {"OBJECT_NAME": "IRIDIUM 33 DEB", "OBJECT_ID": "1997-051GZ", "EPOCH": "2025-12-11T08:34:28.799328", "MEAN_MOTION": 14.38409637, "ECCENTRICITY": 0.00659674, "INCLINATION": 86.3698, "RA_OF_ASC_NODE": 103.229, "ARG_OF_PERICENTER": 177.4646, "MEAN_ANOMALY": 182.6901, "EPHEMERIS_TYPE": 0, "CLASSIFICATION_TYPE": "U", "NORAD_CAT_ID": 34508, "ELEMENT_SET_NO": 999, "REV_AT_EPOCH": 87289, "BSTAR": 0.0027381025, "MEAN_MOTION_DOT": 8.585e-05, "MEAN_MOTION_DDOT": 0}, "tle": {"line1": "1 34508U 97051GZ  25345.35727777  .00008585  00000+0  27381-2 0  9994", "line2": "2 34508  86.3698 103.2290 0065967 177.4646 182.6901 14.38409637872893"}}, "geometry": {"type": "Point", "coordinates": [-77.50166732065718, 7.526507881787182]}}, {"type": "Feature", "properties": {"norad_id": 34521, "name": "IRIDIUM 33 DEB", "group": "iridium-33-debris", "lat": -80.23002931198226, "lon": 9.326859080133238, "alt_km": 689.2967114643379, "timestamp": "2025-12-11T22:43:47.654747+00:00", "meta": {"OBJECT_NAME": "IRIDIUM 33 DEB", "OBJECT_ID": "1997-051HN", "EPOCH": "2025-12-11T13:15:08.871264", "MEAN_MOTION": 14.63350474, "ECCENTRICITY": 0.00014194, "INCLINATION": 86.3802, "RA_OF_ASC_NODE": 31.0706, "ARG_OF_PERICENTER": 220.6966, "MEAN_ANOMALY": 139.4141, "EPHEMERIS_TYPE": 0, "CLASSIFICATION_TYPE": "U", "NORAD_CAT_ID": 34521, "ELEMENT_SET_NO": 999, "REV_AT_EPOCH": 88455, "BSTAR": 0.0013668765, "MEAN_MOTION_DOT": 7.081e-05, "MEAN_MOTION_DDOT": 0}, "tle": {"line1": "1 34521U 97051HN  25345.55218601  .00007081  00000+0  13669-2 0  9996", "line2": "2 34521  86.3802  31.0706 0001419 220.6966 139.4141 14.63350474884557"}}, "geometry": {"type": "Point", "coordinates": [9.326859080133238, -80.23002931198226]}}, {"type": "Feature", "properties": {"norad_id": 34525, "name": "IRIDIUM 33 DEB", "group": "iridium-33-debris", "lat": 23.365277326132052, "lon": -134.38832048004042, "alt_km": 746.1154085034495, "timestamp": "2025-12-11T22:43:47.654757+00:00", "meta": {"OBJECT_NAME": "IRIDIUM 33 DEB", "OBJECT_ID": "1997-051HS", "EPOCH": "2025-12-11T16:03:46.586016", "MEAN_MOTION": 14.42901861, "ECCENTRICITY": 0.00066977, "INCLINATION": 86.3729, "RA_OF_ASC_NODE": 47.3005, "ARG_OF_PERICENTER": 97.8049, "MEAN_ANOMALY": 56.5607, "EPHEMERIS_TYPE": 0, "CLASSIFICATION_TYPE": "U", "NORAD_CAT_ID": 34525, "ELEMENT_SET_NO": 999, "REV_AT_EPOCH": 88072, "BSTAR": 0.00057422935, "MEAN_MOTION_DOT": 1.938e-05, "MEAN_MOTION_DDOT": 0}, "tle": {"line1": "1 34525U 97051HS  25345.66928919  .00001938  00000+0  57423-3 0  9994", "line2": "2 34525  86.3729  47.3005 0006697  97.8049  56.5607 14.42901861880720"}}, "geometry": {"type": "Point", "coordinates": [-134.38832048004042, 23.365277326132052]}}]}